start=new Date('2022-10-29T00:00:00.000Z').valueOf();
sats=[{"COUNTRY_CODE":"US","SITE":"AFETR","TIME_SYSTEM":"UTC","APOAPSIS":"548.131","MEAN_MOTION_DOT":"0.00003700","RA_OF_ASC_NODE":"9.5190","TLE_LINE1":"1 47835U 21018BA  22301.67623111  .00003700  00000-0  26701-3 0  9993","FILE":"3637111","LAUNCH_DATE":"2021-03-11","MEAN_ELEMENT_THEORY":"SGP4","OBJECT_NAME":"STARLINK-2425","SEMIMAJOR_AXIS":"6925.292","CENTER_NAME":"EARTH","RCS_SIZE":"LARGE","OBJECT_ID":"2021-018BA","REF_FRAME":"TEME","ECCENTRICITY":"0.00014060","MEAN_MOTION_DDOT":"0.0000000000000","TLE_LINE2":"2 47835  53.0564   9.5190 0001406  76.8717 283.2429 15.06418323 91422","DECAY_DATE":null,"GP_ID":"216406375","PERIAPSIS":"546.184","ELEMENT_SET_NO":"999","INCLINATION":"53.0564","BSTAR":"0.00026701000000","PERIOD":"95.591","MEAN_MOTION":"15.06418323","CLASSIFICATION_TYPE":"U","OBJECT_TYPE":"PAYLOAD","ARG_OF_PERICENTER":"76.8717","MEAN_ANOMALY":"283.2429","NORAD_CAT_ID":"47835","EPOCH":"2022-10-28T16:13:46.367904","EPHEMERIS_TYPE":"0","REV_AT_EPOCH":"9142"},{"MEAN_MOTION_DDOT":"0.0000000000000","TLE_LINE2":"2 47836  53.0545   4.5227 0001714  54.1114 306.0034 15.06405646 91509","ECCENTRICITY":"0.00017140","REF_FRAME":"TEME","OBJECT_ID":"2021-018BB","RCS_SIZE":"LARGE","BSTAR":"0.00031432000000","INCLINATION":"53.0545","PERIAPSIS":"546.009","ELEMENT_SET_NO":"999","DECAY_DATE":null,"GP_ID":"216406625","OBJECT_TYPE":"PAYLOAD","MEAN_MOTION":"15.06405646","CLASSIFICATION_TYPE":"U","PERIOD":"95.592","REV_AT_EPOCH":"9150","EPHEMERIS_TYPE":"0","NORAD_CAT_ID":"47836","ARG_OF_PERICENTER":"54.1114","MEAN_ANOMALY":"306.0034","EPOCH":"2022-10-28T16:01:09.691392","COUNTRY_CODE":"US","TIME_SYSTEM":"UTC","SITE":"AFETR","LAUNCH_DATE":"2021-03-11","FILE":"3637111","TLE_LINE1":"1 47836U 21018BB  22301.66747328  .00004404  00000-0  31432-3 0  9999","RA_OF_ASC_NODE":"4.5227","MEAN_MOTION_DOT":"0.00004404","APOAPSIS":"548.383","CENTER_NAME":"EARTH","SEMIMAJOR_AXIS":"6925.331","MEAN_ELEMENT_THEORY":"SGP4","OBJECT_NAME":"STARLINK-2426"},{"GP_ID":"216382051","DECAY_DATE":null,"BSTAR":"0.00007098900000","INCLINATION":"53.0548","ELEMENT_SET_NO":"999","PERIAPSIS":"545.590","REF_FRAME":"TEME","OBJECT_ID":"2021-018BC","RCS_SIZE":"LARGE","MEAN_MOTION_DDOT":"0.0000000000000","TLE_LINE2":"2 47837  53.0548 344.6840 0002293  35.3000 324.8140 15.06411565 91446","ECCENTRICITY":"0.00022930","EPOCH":"2022-10-28T14:38:52.462752","ARG_OF_PERICENTER":"35.3000","MEAN_ANOMALY":"324.8140","NORAD_CAT_ID":"47837","EPHEMERIS_TYPE":"0","REV_AT_EPOCH":"9144","PERIOD":"95.591","OBJECT_TYPE":"PAYLOAD","MEAN_MOTION":"15.06411565","CLASSIFICATION_TYPE":"U","TIME_SYSTEM":"UTC","SITE":"AFETR","COUNTRY_CODE":"US","SEMIMAJOR_AXIS":"6925.313","OBJECT_NAME":"STARLINK-2427","MEAN_ELEMENT_THEORY":"SGP4","CENTER_NAME":"EARTH","RA_OF_ASC_NODE":"344.6840","MEAN_MOTION_DOT":"0.00000776","APOAPSIS":"548.766","LAUNCH_DATE":"2021-03-11","FILE":"3636947","TLE_LINE1":"1 47837U 21018BC  22301.61032943  .00000776  00000-0  70989-4 0  9994"},{"OBJECT_ID":"2021-018BD","REF_FRAME":"TEME","RCS_SIZE":"MEDIUM","TLE_LINE2":"2 47838  53.0542   5.2348 0002058  43.2664 316.8487 15.06408460 91475","MEAN_MOTION_DDOT":"0.0000000000000","ECCENTRICITY":"0.00020580","DECAY_DATE":null,"GP_ID":"216374124","ELEMENT_SET_NO":"999","PERIAPSIS":"545.762","INCLINATION":"53.0542","BSTAR":"0.00021663000000","PERIOD":"95.592","OBJECT_TYPE":"PAYLOAD","CLASSIFICATION_TYPE":"U","MEAN_MOTION":"15.06408460","EPOCH":"2022-10-28T11:46:22.361376","NORAD_CAT_ID":"47838","MEAN_ANOMALY":"316.8487","ARG_OF_PERICENTER":"43.2664","REV_AT_EPOCH":"9147","EPHEMERIS_TYPE":"0","COUNTRY_CODE":"US","SITE":"AFETR","TIME_SYSTEM":"UTC","MEAN_MOTION_DOT":"0.00002947","RA_OF_ASC_NODE":"5.2348","APOAPSIS":"548.613","LAUNCH_DATE":"2021-03-11","TLE_LINE1":"1 47838U 21018BD  22301.49053659  .00002947  00000-0  21663-3 0  9994","FILE":"3636776","MEAN_ELEMENT_THEORY":"SGP4","OBJECT_NAME":"STARLINK-2429","SEMIMAJOR_AXIS":"6925.323","CENTER_NAME":"EARTH"},{"PERIOD":"95.591","OBJECT_TYPE":"PAYLOAD","CLASSIFICATION_TYPE":"U","MEAN_MOTION":"15.06412061","EPOCH":"2022-10-28T09:16:26.138496","MEAN_ANOMALY":"315.2635","NORAD_CAT_ID":"47839","ARG_OF_PERICENTER":"44.8525","EPHEMERIS_TYPE":"0","REV_AT_EPOCH":"9189","OBJECT_ID":"2021-018BE","REF_FRAME":"TEME","RCS_SIZE":"LARGE","MEAN_MOTION_DDOT":"0.0000000000000","TLE_LINE2":"2 47839  53.0559 335.6760 0002129  44.8525 315.2635 15.06412061 91890","ECCENTRICITY":"0.00021290","GP_ID":"216375376","DECAY_DATE":null,"ELEMENT_SET_NO":"999","PERIAPSIS":"545.702","BSTAR":"0.00016789000000","INCLINATION":"53.0559","MEAN_MOTION_DOT":"0.00002221","RA_OF_ASC_NODE":"335.6760","APOAPSIS":"548.651","LAUNCH_DATE":"2021-03-11","TLE_LINE1":"1 47839U 21018BE  22301.38641364  .00002221  00000-0  16789-3 0  9997","FILE":"3636776","OBJECT_NAME":"STARLINK-2431","MEAN_ELEMENT_THEORY":"SGP4","SEMIMAJOR_AXIS":"6925.312","CENTER_NAME":"EARTH","COUNTRY_CODE":"US","SITE":"AFETR","TIME_SYSTEM":"UTC"},{"TLE_LINE2":"2 47840  53.0551 345.6553 0002091  43.0657 317.0495 15.06416769 91747","MEAN_MOTION_DDOT":"0.0000000000000","ECCENTRICITY":"0.00020910","OBJECT_ID":"2021-018BF","REF_FRAME":"TEME","RCS_SIZE":"LARGE","ELEMENT_SET_NO":"999","PERIAPSIS":"545.714","BSTAR":"0.00019395000000","INCLINATION":"53.0551","DECAY_DATE":null,"GP_ID":"216375126","OBJECT_TYPE":"PAYLOAD","MEAN_MOTION":"15.06416769","CLASSIFICATION_TYPE":"U","PERIOD":"95.591","REV_AT_EPOCH":"9174","EPHEMERIS_TYPE":"0","EPOCH":"2022-10-28T09:31:01.510464","ARG_OF_PERICENTER":"43.0657","MEAN_ANOMALY":"317.0495","NORAD_CAT_ID":"47840","COUNTRY_CODE":"US","SITE":"AFETR","TIME_SYSTEM":"UTC","LAUNCH_DATE":"2021-03-11","TLE_LINE1":"1 47840U 21018BF  22301.39654526  .00002610  00000-0  19395-3 0  9992","FILE":"3636776","MEAN_MOTION_DOT":"0.00002610","RA_OF_ASC_NODE":"345.6553","APOAPSIS":"548.610","CENTER_NAME":"EARTH","OBJECT_NAME":"STARLINK-2432","MEAN_ELEMENT_THEORY":"SGP4","SEMIMAJOR_AXIS":"6925.297"},{"GP_ID":"216382049","DECAY_DATE":null,"ELEMENT_SET_NO":"999","PERIAPSIS":"545.911","BSTAR":"0.00019792000000","INCLINATION":"53.0530","OBJECT_ID":"2021-018BG","REF_FRAME":"TEME","RCS_SIZE":"LARGE","TLE_LINE2":"2 47841  53.0530 344.7757 0001833  50.2586 309.8564 15.06410665 91436","MEAN_MOTION_DDOT":"0.0000000000000","ECCENTRICITY":"0.00018330","EPOCH":"2022-10-28T14:12:20.071872","ARG_OF_PERICENTER":"50.2586","NORAD_CAT_ID":"47841","MEAN_ANOMALY":"309.8564","REV_AT_EPOCH":"9143","EPHEMERIS_TYPE":"0","PERIOD":"95.591","OBJECT_TYPE":"PAYLOAD","MEAN_MOTION":"15.06410665","CLASSIFICATION_TYPE":"U","SITE":"AFETR","TIME_SYSTEM":"UTC","COUNTRY_CODE":"US","OBJECT_NAME":"STARLINK-2433","MEAN_ELEMENT_THEORY":"SGP4","SEMIMAJOR_AXIS":"6925.316","CENTER_NAME":"EARTH","MEAN_MOTION_DOT":"0.00002668","RA_OF_ASC_NODE":"344.7757","APOAPSIS":"548.450","LAUNCH_DATE":"2021-03-11","TLE_LINE1":"1 47841U 21018BG  22301.59189898  .00002668  00000-0  19792-3 0  9994","FILE":"3636947"},{"MEAN_ANOMALY":"290.1600","ARG_OF_PERICENTER":"69.9550","NORAD_CAT_ID":"47842","EPOCH":"2022-10-28T20:14:34.778112","EPHEMERIS_TYPE":"0","REV_AT_EPOCH":"9144","PERIOD":"95.591","OBJECT_TYPE":"PAYLOAD","CLASSIFICATION_TYPE":"U","MEAN_MOTION":"15.06418534","GP_ID":"216408126","DECAY_DATE":null,"BSTAR":"0.00066692000000","INCLINATION":"53.0559","PERIAPSIS":"546.117","ELEMENT_SET_NO":"999","REF_FRAME":"TEME","OBJECT_ID":"2021-018BH","RCS_SIZE":"LARGE","TLE_LINE2":"2 47842  53.0559  13.6393 0001501  69.9550 290.1600 15.06418534 91443","MEAN_MOTION_DDOT":"0.0000000000000","ECCENTRICITY":"0.00015010","SEMIMAJOR_AXIS":"6925.292","MEAN_ELEMENT_THEORY":"SGP4","OBJECT_NAME":"STARLINK-2434","CENTER_NAME":"EARTH","RA_OF_ASC_NODE":"13.6393","MEAN_MOTION_DOT":"0.00009671","APOAPSIS":"548.196","LAUNCH_DATE":"2021-03-11","FILE":"3637111","TLE_LINE1":"1 47842U 21018BH  22301.84345808  .00009671  00000-0  66692-3 0  9990","TIME_SYSTEM":"UTC","SITE":"AFETR","COUNTRY_CODE":"US"},{"TIME_SYSTEM":"UTC","SITE":"AFETR","COUNTRY_CODE":"US","SEMIMAJOR_AXIS":"6925.327","OBJECT_NAME":"STARLINK-2435","MEAN_ELEMENT_THEORY":"SGP4","CENTER_NAME":"EARTH","APOAPSIS":"548.264","RA_OF_ASC_NODE":"10.2601","MEAN_MOTION_DOT":"0.00001863","FILE":"3636776","TLE_LINE1":"1 47843U 21018BJ  22301.48455226  .00001863  00000-0  14392-3 0  9992","LAUNCH_DATE":"2021-03-11","GP_ID":"216374876","DECAY_DATE":null,"BSTAR":"0.00014392000000","INCLINATION":"53.0552","ELEMENT_SET_NO":"999","PERIAPSIS":"546.121","RCS_SIZE":"LARGE","REF_FRAME":"TEME","OBJECT_ID":"2021-018BJ","ECCENTRICITY":"0.00015470","TLE_LINE2":"2 47843  53.0552  10.2601 0001547  61.9676 298.1469 15.06406881 91424","MEAN_MOTION_DDOT":"0.0000000000000","ARG_OF_PERICENTER":"61.9676","EPOCH":"2022-10-28T11:37:45.315264","NORAD_CAT_ID":"47843","MEAN_ANOMALY":"298.1469","EPHEMERIS_TYPE":"0","REV_AT_EPOCH":"9142","PERIOD":"95.592","MEAN_MOTION":"15.06406881","CLASSIFICATION_TYPE":"U","OBJECT_TYPE":"PAYLOAD"},{"SITE":"AFETR","TIME_SYSTEM":"UTC","COUNTRY_CODE":"US","MEAN_ELEMENT_THEORY":"SGP4","OBJECT_NAME":"STARLINK-2446","SEMIMAJOR_AXIS":"6925.299","CENTER_NAME":"EARTH","APOAPSIS":"548.275","MEAN_MOTION_DOT":"-0.00000541","RA_OF_ASC_NODE":"4.9661","TLE_LINE1":"1 47844U 21018BK  22301.54951269 -.00000541  00000-0 -17441-4 0  9991","FILE":"3636952","LAUNCH_DATE":"2021-03-11","DECAY_DATE":null,"GP_ID":"216381800","PERIAPSIS":"546.053","ELEMENT_SET_NO":"999","INCLINATION":"53.0550","BSTAR":"-0.00001744100000","RCS_SIZE":"LARGE","OBJECT_ID":"2021-018BK","REF_FRAME":"TEME","ECCENTRICITY":"0.00016040","TLE_LINE2":"2 47844  53.0550   4.9661 0001604  55.8750 304.2391 15.06416153 91154","MEAN_MOTION_DDOT":"0.0000000000000","MEAN_ANOMALY":"304.2391","EPOCH":"2022-10-28T13:11:17.896416","ARG_OF_PERICENTER":"55.8750","NORAD_CAT_ID":"47844","REV_AT_EPOCH":"9115","EPHEMERIS_TYPE":"0","PERIOD":"95.591","MEAN_MOTION":"15.06416153","CLASSIFICATION_TYPE":"U","OBJECT_TYPE":"PAYLOAD"}];
